ONEWEB-0710             
1 55173U 23004AK  26066.29743514 -.00000003  00000+0 -42081-4 0  9998
2 55173  87.9148  26.1005 0001889  75.2404 284.8937 13.17647895154161
ONEWEB-0711             
1 55174U 23004AL  26066.31933686 -.00000020  00000+0 -93603-4 0  9998
2 55174  87.8865  41.3189 0001857  59.8312 300.3000 13.11414699152486
ONEWEB-0713             
1 55175U 23004AM  26066.18538628 -.00000593  00000+0 -17096-2 0  9996
2 55175  87.8869  41.3450 0001816  71.2156 288.9169 13.11415643152455
ONEWEB-0715             
1 55176U 23004AN  26065.95141003 -.00000450  00000+0 -13056-2 0  9992
2 55176  87.8857  41.3921 0002566  81.9124 278.2295 13.11416166152466
ONEWEB-0716             
1 55177U 23004AP  26066.29070618  .00000077  00000+0  16508-3 0  9993
2 55177  87.9144  26.1016 0001726  87.4567 272.6762 13.17648685154167
ONEWEB-0717             
1 55178U 23004AQ  26066.27382089  .00000086  00000+0  18832-3 0  9992
2 55178  87.9157  26.0846 0002037  61.0306 299.1030 13.17649051154213
ONEWEB-0719             
1 55179U 23004AR  26066.28393586 -.00000014  00000+0 -70388-4 0  9996
2 55179  87.9156  26.0639 0001646  83.1348 276.9971 13.17651166154160
ONEWEB-0530             
1 55796U 23029A   26066.04604921  .00000138  00000+0  30718-3 0  9997
2 55796  87.9168 294.8731 0001422  65.5267 294.6015 13.20772688147662
ONEWEB-0534             
1 55797U 23029B   26066.18493917  .00000076  00000+0  15520-3 0  9999
2 55797  87.9165 294.8441 0001537  88.1561 271.9749 13.20772765147683
ONEWEB-0556             
1 55798U 23029C   26066.19125617  .00000079  00000+0  16212-3 0  9992
2 55798  87.9166 294.8450 0000763 110.1611 249.9605 13.20771540147683
ONEWEB-0562             
1 55799U 23029D   26066.17862453  .00000024  00000+0  26300-4 0  9997
2 55799  87.9165 294.8276 0000996  53.2604 306.8621 13.20772619147685
ONEWEB-0563             
1 55800U 23029E   26066.17230912  .00000051  00000+0  94311-4 0  9996
2 55800  87.9164 294.8593 0001536  96.1766 263.9543 13.20773096147670
ONEWEB-0564             
1 55801U 23029F   26066.16599834  .00000027  00000+0  34107-4 0  9997
2 55801  87.9163 294.8329 0001363  70.4311 289.6970 13.20772851147684
ONEWEB-0638             
1 55802U 23029G   26066.24300312 -.00000155  00000+0 -45280-3 0  9995
2 55802  87.8983 310.1015 0001031  78.1673 281.9572 13.14503802146005
ONEWEB-0639             
1 55803U 23029H   26066.20996254  .00000706  00000+0  17310-2 0  9990
2 55803  87.9226 325.2958 0002367 103.1811 256.9586 13.19721843145453
ONEWEB-0640             
1 55804U 23029J   26066.17639263 -.00000078  00000+0 -24592-3 0  9996
2 55804  87.8983 310.1053 0001055 103.7279 256.3968 13.14502421146014
ONEWEB-0641             
1 55805U 23029K   26066.28103373  .00000111  00000+0  24494-3 0  9994
2 55805  87.9241 325.2668 0001730  85.0915 275.0416 13.19726080145470
