[{"OBJECT_NAME":"ONEWEB-0710","OBJECT_ID":"2023-004AK","EPOCH":"2026-03-07T07:08:18.396096","MEAN_MOTION":13.17647895,"ECCENTRICITY":0.00018891,"INCLINATION":87.9148,"RA_OF_ASC_NODE":26.1005,"ARG_OF_PERICENTER":75.2404,"MEAN_ANOMALY":284.8937,"EPHEMERIS_TYPE":0,"CLASSIFICATION_TYPE":"U","NORAD_CAT_ID":55173,"ELEMENT_SET_NO":999,"REV_AT_EPOCH":15416,"BSTAR":-4.2081395e-5,"MEAN_MOTION_DOT":-3.0e-8,"MEAN_MOTION_DDOT":0},{"OBJECT_NAME":"ONEWEB-0711","OBJECT_ID":"2023-004AL","EPOCH":"2026-03-07T07:39:50.704704","MEAN_MOTION":13.11414699,"ECCENTRICITY":0.0001857,"INCLINATION":87.8865,"RA_OF_ASC_NODE":41.3189,"ARG_OF_PERICENTER":59.8312,"MEAN_ANOMALY":300.3,"EPHEMERIS_TYPE":0,"CLASSIFICATION_TYPE":"U","NORAD_CAT_ID":55174,"ELEMENT_SET_NO":999,"REV_AT_EPOCH":15248,"BSTAR":-9.3602754e-5,"MEAN_MOTION_DOT":-2.0e-7,"MEAN_MOTION_DDOT":0},{"OBJECT_NAME":"ONEWEB-0713","OBJECT_ID":"2023-004AM","EPOCH":"2026-03-07T04:26:57.374592","MEAN_MOTION":13.11415643,"ECCENTRICITY":0.00018168,"INCLINATION":87.8869,"RA_OF_ASC_NODE":41.345,"ARG_OF_PERICENTER":71.2156,"MEAN_ANOMALY":288.9169,"EPHEMERIS_TYPE":0,"CLASSIFICATION_TYPE":"U","NORAD_CAT_ID":55175,"ELEMENT_SET_NO":999,"REV_AT_EPOCH":15245,"BSTAR":-0.0017095612,"MEAN_MOTION_DOT":-5.93e-6,"MEAN_MOTION_DDOT":0},{"OBJECT_NAME":"ONEWEB-0715","OBJECT_ID":"2023-004AN","EPOCH":"2026-03-06T22:50:01.826592","MEAN_MOTION":13.11416166,"ECCENTRICITY":0.00025667,"INCLINATION":87.8857,"RA_OF_ASC_NODE":41.3921,"ARG_OF_PERICENTER":81.9124,"MEAN_ANOMALY":278.2295,"EPHEMERIS_TYPE":0,"CLASSIFICATION_TYPE":"U","NORAD_CAT_ID":55176,"ELEMENT_SET_NO":999,"REV_AT_EPOCH":15246,"BSTAR":-0.0013055959,"MEAN_MOTION_DOT":-4.5e-6,"MEAN_MOTION_DDOT":0},{"OBJECT_NAME":"ONEWEB-0716","OBJECT_ID":"2023-004AP","EPOCH":"2026-03-07T06:58:37.013952","MEAN_MOTION":13.17648685,"ECCENTRICITY":0.00017268,"INCLINATION":87.9144,"RA_OF_ASC_NODE":26.1016,"ARG_OF_PERICENTER":87.4567,"MEAN_ANOMALY":272.6762,"EPHEMERIS_TYPE":0,"CLASSIFICATION_TYPE":"U","NORAD_CAT_ID":55177,"ELEMENT_SET_NO":999,"REV_AT_EPOCH":15416,"BSTAR":0.00016508169,"MEAN_MOTION_DOT":7.7e-7,"MEAN_MOTION_DDOT":0},{"OBJECT_NAME":"ONEWEB-0717","OBJECT_ID":"2023-004AQ","EPOCH":"2026-03-07T06:34:18.124896","MEAN_MOTION":13.17649051,"ECCENTRICITY":0.00020376,"INCLINATION":87.9157,"RA_OF_ASC_NODE":26.0846,"ARG_OF_PERICENTER":61.0306,"MEAN_ANOMALY":299.103,"EPHEMERIS_TYPE":0,"CLASSIFICATION_TYPE":"U","NORAD_CAT_ID":55178,"ELEMENT_SET_NO":999,"REV_AT_EPOCH":15421,"BSTAR":0.00018832264,"MEAN_MOTION_DOT":8.6e-7,"MEAN_MOTION_DDOT":0},{"OBJECT_NAME":"ONEWEB-0719","OBJECT_ID":"2023-004AR","EPOCH":"2026-03-07T06:48:52.058304","MEAN_MOTION":13.17651166,"ECCENTRICITY":0.00016461,"INCLINATION":87.9156,"RA_OF_ASC_NODE":26.0639,"ARG_OF_PERICENTER":83.1348,"MEAN_ANOMALY":276.9971,"EPHEMERIS_TYPE":0,"CLASSIFICATION_TYPE":"U","NORAD_CAT_ID":55179,"ELEMENT_SET_NO":999,"REV_AT_EPOCH":15416,"BSTAR":-7.0388376e-5,"MEAN_MOTION_DOT":-1.4e-7,"MEAN_MOTION_DDOT":0},{"OBJECT_NAME":"ONEWEB-0530","OBJECT_ID":"2023-029A","EPOCH":"2026-03-07T01:06:18.651744","MEAN_MOTION":13.20772688,"ECCENTRICITY":0.00014221,"INCLINATION":87.9168,"RA_OF_ASC_NODE":294.8731,"ARG_OF_PERICENTER":65.5267,"MEAN_ANOMALY":294.6015,"EPHEMERIS_TYPE":0,"CLASSIFICATION_TYPE":"U","NORAD_CAT_ID":55796,"ELEMENT_SET_NO":999,"REV_AT_EPOCH":14766,"BSTAR":0.00030718019,"MEAN_MOTION_DOT":1.38e-6,"MEAN_MOTION_DDOT":0},{"OBJECT_NAME":"ONEWEB-0534","OBJECT_ID":"2023-029B","EPOCH":"2026-03-07T04:26:18.744288","MEAN_MOTION":13.20772765,"ECCENTRICITY":0.00015376,"INCLINATION":87.9165,"RA_OF_ASC_NODE":294.8441,"ARG_OF_PERICENTER":88.1561,"MEAN_ANOMALY":271.9749,"EPHEMERIS_TYPE":0,"CLASSIFICATION_TYPE":"U","NORAD_CAT_ID":55797,"ELEMENT_SET_NO":999,"REV_AT_EPOCH":14768,"BSTAR":0.0001551975,"MEAN_MOTION_DOT":7.6e-7,"MEAN_MOTION_DDOT":0},{"OBJECT_NAME":"ONEWEB-0556","OBJECT_ID":"2023-029C","EPOCH":"2026-03-07T04:35:24.533088","MEAN_MOTION":13.2077154,"ECCENTRICITY":7.631e-5,"INCLINATION":87.9166,"RA_OF_ASC_NODE":294.845,"ARG_OF_PERICENTER":110.1611,"MEAN_ANOMALY":249.9605,"EPHEMERIS_TYPE":0,"CLASSIFICATION_TYPE":"U","NORAD_CAT_ID":55798,"ELEMENT_SET_NO":999,"REV_AT_EPOCH":14768,"BSTAR":0.00016212319,"MEAN_MOTION_DOT":7.9e-7,"MEAN_MOTION_DDOT":0},{"OBJECT_NAME":"ONEWEB-0562","OBJECT_ID":"2023-029D","EPOCH":"2026-03-07T04:17:13.159392","MEAN_MOTION":13.20772619,"ECCENTRICITY":9.966e-5,"INCLINATION":87.9165,"RA_OF_ASC_NODE":294.8276,"ARG_OF_PERICENTER":53.2604,"MEAN_ANOMALY":306.8621,"EPHEMERIS_TYPE":0,"CLASSIFICATION_TYPE":"U","NORAD_CAT_ID":55799,"ELEMENT_SET_NO":999,"REV_AT_EPOCH":14768,"BSTAR":2.6299667e-5,"MEAN_MOTION_DOT":2.4e-7,"MEAN_MOTION_DDOT":0},{"OBJECT_NAME":"ONEWEB-0563","OBJECT_ID":"2023-029E","EPOCH":"2026-03-07T04:08:07.507968","MEAN_MOTION":13.20773096,"ECCENTRICITY":0.00015361,"INCLINATION":87.9164,"RA_OF_ASC_NODE":294.8593,"ARG_OF_PERICENTER":96.1766,"MEAN_ANOMALY":263.9543,"EPHEMERIS_TYPE":0,"CLASSIFICATION_TYPE":"U","NORAD_CAT_ID":55800,"ELEMENT_SET_NO":999,"REV_AT_EPOCH":14767,"BSTAR":9.431111e-5,"MEAN_MOTION_DOT":5.1e-7,"MEAN_MOTION_DDOT":0},{"OBJECT_NAME":"ONEWEB-0564","OBJECT_ID":"2023-029F","EPOCH":"2026-03-07T03:59:02.256576","MEAN_MOTION":13.20772851,"ECCENTRICITY":0.00013635,"INCLINATION":87.9163,"RA_OF_ASC_NODE":294.8329,"ARG_OF_PERICENTER":70.4311,"MEAN_ANOMALY":289.697,"EPHEMERIS_TYPE":0,"CLASSIFICATION_TYPE":"U","NORAD_CAT_ID":55801,"ELEMENT_SET_NO":999,"REV_AT_EPOCH":14768,"BSTAR":3.4106667e-5,"MEAN_MOTION_DOT":2.7e-7,"MEAN_MOTION_DDOT":0},{"OBJECT_NAME":"ONEWEB-0638","OBJECT_ID":"2023-029G","EPOCH":"2026-03-07T05:49:55.469568","MEAN_MOTION":13.14503802,"ECCENTRICITY":0.00010315,"INCLINATION":87.8983,"RA_OF_ASC_NODE":310.1015,"ARG_OF_PERICENTER":78.1673,"MEAN_ANOMALY":281.9572,"EPHEMERIS_TYPE":0,"CLASSIFICATION_TYPE":"U","NORAD_CAT_ID":55802,"ELEMENT_SET_NO":999,"REV_AT_EPOCH":14600,"BSTAR":-0.00045280065,"MEAN_MOTION_DOT":-1.55e-6,"MEAN_MOTION_DDOT":0},{"OBJECT_NAME":"ONEWEB-0639","OBJECT_ID":"2023-029H","EPOCH":"2026-03-07T05:02:20.763456","MEAN_MOTION":13.19721843,"ECCENTRICITY":0.00023675,"INCLINATION":87.9226,"RA_OF_ASC_NODE":325.2958,"ARG_OF_PERICENTER":103.1811,"MEAN_ANOMALY":256.9586,"EPHEMERIS_TYPE":0,"CLASSIFICATION_TYPE":"U","NORAD_CAT_ID":55803,"ELEMENT_SET_NO":999,"REV_AT_EPOCH":14545,"BSTAR":0.001731021,"MEAN_MOTION_DOT":7.06e-6,"MEAN_MOTION_DDOT":0},{"OBJECT_NAME":"ONEWEB-0640","OBJECT_ID":"2023-029J","EPOCH":"2026-03-07T04:14:00.323232","MEAN_MOTION":13.14502421,"ECCENTRICITY":0.00010558,"INCLINATION":87.8983,"RA_OF_ASC_NODE":310.1053,"ARG_OF_PERICENTER":103.7279,"MEAN_ANOMALY":256.3968,"EPHEMERIS_TYPE":0,"CLASSIFICATION_TYPE":"U","NORAD_CAT_ID":55804,"ELEMENT_SET_NO":999,"REV_AT_EPOCH":14601,"BSTAR":-0.00024591688,"MEAN_MOTION_DOT":-7.8e-7,"MEAN_MOTION_DDOT":0},{"OBJECT_NAME":"ONEWEB-0641","OBJECT_ID":"2023-029K","EPOCH":"2026-03-07T06:44:41.314272","MEAN_MOTION":13.1972608,"ECCENTRICITY":0.00017307,"INCLINATION":87.9241,"RA_OF_ASC_NODE":325.2668,"ARG_OF_PERICENTER":85.0915,"MEAN_ANOMALY":275.0416,"EPHEMERIS_TYPE":0,"CLASSIFICATION_TYPE":"U","NORAD_CAT_ID":55805,"ELEMENT_SET_NO":999,"REV_AT_EPOCH":14547,"BSTAR":0.00024494122,"MEAN_MOTION_DOT":1.11e-6,"MEAN_MOTION_DDOT":0}]
